C/2019 A9 (PANSTARRS),e,84.2621,278.4114,237.9193,39.14173,0.0040248,0.96344814,5.4779,04/17.0/2023,2000,g 15.0,4.0
# From MPEC 2022-L66
C/2019 B1 (Africano),e,123.4141,290.3658,174.7697,137.7487,0.0006096,0.98839878,0.0000,03/18.6163/2019,2000,g 16.0,4.0
# From MPC115885
P/2019 B2 (Groeller),e,17.0088,175.7473,0.9997,3.914836,0.1272429,0.36025902,180.6526,04/17.0/2023,2000,g 14.5,4.0
# From MPEC 2022-YB4
C/2019 B3 (PANSTARRS),e,66.5386,358.4332,263.9664,88164,0.0000000,0.99992258,0.0000,01/20.3526/2021,2000,g  5.5,4.0
# From MPEC 2021-P47
C/2019 C1 (ATLAS),e,36.0507,212.3916,319.0749,646.5812,0.0000599,0.98982956,0.0000,05/04.3044/2020,2000,g 10.0,4.0
# From MPEC 2022-O08
C/2019 D1 (Flewelling),e,34.0093,231.6613,70.6847,142.3158,0.0005805,0.98885589,0.0000,05/11.1496/2019,2000,g 13.0,4.0
# From MPEC 2023-G31
C/2019 E3 (ATLAS),e,84.2972,347.2454,280.6851,32485,0.0000002,0.99968253,0.0000,11/14.9399/2023,2000,g  2.5,4.0
# From MPEC 2023-CD7
C/2019 F1 (ATLAS-Africano),h,06/23.0125/2021,54.2253,38.6686,251.2920,1.003078,3.601642,2000,5.5,4.0
# From MPEC 2021-P47
C/2019 F2 (ATLAS),e,19.2719,175.4556,11.6242,16.62548,0.0145393,0.86490005,19.1497,04/17.0/2023,2000,g 12.0,4.0
# From MPEC 2021-P47
A/2019 G2,e,159.2137,208.1599,82.6052,440.0082,0.0001068,0.99478693,0.0000,12/08.5561/2019,2000,g 16.5,2.0
# From MPEC 2022-VC5
A/2019 G3,e,156.8070,49.8947,161.9127,17.20531,0.0138105,0.83447222,22.0214,04/17.0/2023,2000,g 17.1,2.0
# From MPEC 2022-P82
C/2019 G4 (PANSTARRS),h,09/15.7325/2018,138.3522,130.4515,287.7647,1.001682,5.848553,2000,9.5,4.0
# From MPC114607
P/2019 GG21 (PANSTARRS),e,6.0862,340.5567,208.5982,7.469029,0.0482845,0.47187168,69.4293,04/17.0/2023,2000,g 12.0,4.0
# From MPEC 2022-M21
C/2019 H1 (NEOWISE),e,104.4564,269.2696,19.3382,247.0963,0.0002537,0.99253371,0.0000,04/27.9683/2019,2000,g 15.5,4.0
# From MPEC 2023-A50
C/2019 J1 (Lemmon),e,24.5405,98.1589,167.7420,68.41806,0.0017416,0.96368016,2.5605,04/17.0/2023,2000,g 12.0,4.0
# From MPEC 2021-R75
C/2019 J2 (Palomar),e,105.2335,25.5609,98.6912,161.9382,0.0004783,0.98936785,0.0000,07/20.3659/2019,2000,g 13.0,4.0
# From MPC117071
C/2019 J3 (ATLAS),h,08/02.4157/2019,131.3532,270.6033,16.6088,1.000638,2.371058,2000,13.5,4.0
# From MPEC 2022-M21
C/2019 JU6 (ATLAS),h,06/01.8860/2019,148.3314,21.7657,94.9968,1.000047,2.044334,2000,14.5,4.0
# From MPEC 2022-O08
C/2019 K1 (ATLAS),e,87.0558,73.3392,265.7239,11989,0.0000008,0.99983202,0.0000,02/12.7118/2020,2000,g 10.0,4.0
# From MPC119997
C/2019 K4 (Ye),e,105.2969,180.1497,139.8792,1376,0.0000193,0.99835218,0.0000,06/15.6218/2019,2000,g 12.5,4.0
# From MPEC 2021-P47
C/2019 K5 (Young),e,15.3182,177.1324,175.1382,168.1071,0.0004522,0.98785162,0.0000,06/22.9922/2019,2000,g 13.0,4.0
# From MPEC 2021-P47
C/2019 K6 (PANSTARRS),e,132.3814,42.9946,187.5886,1560,0.0000160,0.99748405,0.0000,05/20.0053/2020,2000,g 11.5,4.0
# From MPEC 2023-FK0
C/2019 K7 (Smith),h,06/17.6045/2020,103.5321,307.9646,27.4022,1.000915,4.478294,2000,6.0,4.0
# From MPEC 2021-R75
C/2019 K8 (ATLAS),e,93.1424,291.0295,85.3803,2647,0.0000072,0.99879365,0.0000,07/21.7518/2019,2000,g 11.5,4.0
# From MPEC 2023-A50
C/2019 L1 (PANSTARRS),e,9.9799,254.4301,50.0517,9.840730,0.0319274,0.70538083,42.9536,04/17.0/2023,2000,g 13.5,4.0
# From MPC115886
C/2019 L2 (NEOWISE),e,152.2106,12.5484,18.8409,25.02808,0.0078716,0.93503260,11.6189,04/17.0/2023,2000,g 16.0,4.0
# From MPEC 2023-CD7
P/2019 LD2 (ATLAS),e,11.6204,179.5862,120.0569,5.220620,0.0826268,0.12661162,93.8896,04/17.0/2023,2000,g  8.5,4.0
# From MPEC 2023-G31
C/2019 L3 (ATLAS),h,01/09.6671/2022,48.3497,290.7770,171.6216,1.002108,3.554471,2000,4.5,4.0
# From MPC118095
C/2019 LB7 (Kleyna),e,164.2915,3.8883,336.5709,34.67699,0.0048266,0.92815851,7.1565,04/17.0/2023,2000,g 17.0,4.0
# From MPEC 2022-O08
P/2019 M2 (ATLAS),e,12.2709,307.6160,332.5519,3.028824,0.1869791,0.64742240,260.8750,04/17.0/2023,2000,g 21.2,4.0
# From MPC118095
C/2019 M3 (ATLAS),e,99.5143,154.9303,87.8941,7073,0.0000017,0.99965757,0.0000,12/31.9652/2018,2000,g 12.2,4.0
# From MPEC 2023-C45
C/2019 N1 (ATLAS),e,82.4316,13.5721,193.4187,1687,0.0000142,0.99898927,0.0000,12/01.3314/2020,2000,g  7.5,4.0
# From MPEC 2023-CD8
A/2019 N2,e,89.3877,276.1203,347.1954,1643,0.0000148,0.99881425,0.0000,08/22.7622/2019,2000,g 12.5,2.0
# From MPEC 2022-A21
C/2019 NJ3 (Lemmon),h,10/22.9278/2020,99.4188,142.4697,246.9107,1.002470,4.362787,2000,9.0,4.0
# From MPEC 2023-FK0
A/2019 O2,e,93.3074,48.2627,129.6387,57.90121,0.0022370,0.83277045,0.0219,04/17.0/2023,2000,g  9.5,2.0
# From MPEC 2023-G31
C/2019 O3 (Palomar),h,03/09.5711/2021,89.8188,300.4199,60.1280,1.004365,8.820969,2000,3.5,4.0
# From MPEC 2021-P47
A/2019 O4,e,115.0895,354.9096,61.9035,33.28440,0.0051327,0.89045458,5.9598,04/17.0/2023,2000,g 15.5,2.0
# From MPEC 2023-A50
C/2019 Q1 (Lemmon),h,07/20.7127/2020,155.7293,42.4605,56.1934,1.000742,5.002805,2000,8.5,4.0
# From MPC117072
A/2019 Q2,e,159.0293,188.0105,176.3909,57.86231,0.0022393,0.97817629,0.0000,07/22.1064/2019,2000,g 18.0,2.0
# From MPC117072
C/2019 Q3 (PANSTARRS),h,08/21.3624/2018,65.5390,151.3398,152.7945,1.002564,7.266178,2000,8.5,4.0
# From MPC117072
P/2019 S2 (PANSTARRS),e,10.4659,93.1391,217.1568,4.742770,0.0954236,0.20570864,144.5770,04/17.0/2023,2000,g 13.5,4.0
# From MPEC 2022-CN4
P/2019 S3 (PANSTARRS),e,8.6929,150.1516,213.0551,3.415396,0.1561502,0.47118257,207.4934,04/17.0/2023,2000,g 18.3,4.0
# From MPEC 2021-S45
C/2019 S4 (Lemmon),e,92.0805,63.1487,71.3767,234.3211,0.0002748,0.98530885,0.0000,04/08.0625/2020,2000,g 11.0,4.0
# From MPEC 2023-G31
A/2019 T1,e,120.8757,6.9449,91.0721,38.74580,0.0040866,0.88949745,3.3600,04/17.0/2023,2000,g 13.0,2.0
# From MPEC 2023-BF4
C/2019 T2 (Lemmon),e,111.4743,155.6499,239.4309,3987,0.0000039,0.99933634,0.0000,04/22.5280/2021,2000,g  9.0,4.0
# From MPEC 2022-WQ9
C/2019 T3 (ATLAS),e,121.8452,139.5319,112.4495,3388,0.0000050,0.99824309,0.0000,03/04.2616/2021,2000,g  6.8,4.0
# From MPEC 2023-G31
C/2019 T4 (ATLAS),e,53.6319,199.9391,351.1716,959.7789,0.0000331,0.99558024,0.0000,06/08.9537/2022,2000,g  5.0,4.0
# From MPEC 2021-P47
P/2019 T5 (ATLAS),e,33.4883,247.6254,189.5665,7.997374,0.0435796,0.80953034,59.0147,04/17.0/2023,2000,g 15.0,4.0
# From MPEC 2021-P47
P/2019 T6 (PANSTARRS),e,18.7020,71.2229,328.9979,5.437764,0.0777273,0.62305699,97.5817,04/17.0/2023,2000,g 15.5,4.0
# From MPC118096
P/2019 U4 (PANSTARRS),e,11.7006,200.0007,181.0287,3.520206,0.1492285,0.47600899,194.8117,04/17.0/2023,2000,g 19.0,4.0
# From MPEC 2023-G31
C/2019 U5 (PANSTARRS),h,03/29.8371/2023,113.5198,2.6374,181.4943,1.001453,3.624206,2000,4.5,4.0
# From MPEC 2022-H04
C/2019 U6 (Lemmon),e,60.9786,235.7600,329.5754,340.5840,0.0001568,0.99731823,0.0000,06/18.4349/2020,2000,g 10.0,4.0
# From MPEC 2022-N37
C/2019 V1 (Borisov),e,61.9060,83.1679,51.1629,1524,0.0000166,0.99796929,0.0000,07/16.4261/2020,2000,g 11.0,4.0
# From MPEC 2022-L66
P/2019 V2 (Groeller),e,11.8083,189.1849,335.7601,7.499869,0.0479870,0.33112739,43.7416,04/17.0/2023,2000,g 10.0,4.0
# From MPEC 2023-A50
P/2019 W1 (PANSTARRS),e,23.4750,35.3767,18.7247,4.549205,0.1015783,0.26708842,146.1650,04/17.0/2023,2000,g 12.9,4.0
# From MPEC 2021-P47
P/2019 X1 (Pruyne),e,10.2501,43.6648,36.8052,6.174165,0.0642446,0.30363612,87.6910,04/17.0/2023,2000,g 10.4,4.0
# From MPC119999
C/2019 Y1 (ATLAS),e,73.3559,31.5556,57.9143,86.48142,0.0012255,0.99041306,0.0000,03/16.0086/2020,2000,g 13.7,4.0
# From MPEC 2022-YN2
C/2019 Y4 (ATLAS),e,45.2314,120.6533,177.4532,354.2993,0.0001478,0.99928016,0.0000,05/30.8921/2020,2000,g 11.8,6.0
# From MPEC 2020-L06
C/2019 Y4-A (ATLAS),h,05/30.9190/2020,45.6743,121.0145,177.2869,1.001419,0.253191,2000,11.6,6.0
# From MPEC 2020-L06
C/2019 Y4-B (ATLAS),e,45.3104,120.7089,177.4198,1502,0.0000169,0.99983039,0.0000,05/30.8948/2020,2000,g 12.8,6.0
# From MPEC 2020-L06
C/2019 Y4-C (ATLAS),h,05/30.8737/2020,45.4567,120.7410,177.3203,1.002143,0.254258,2000,12.7,6.0
# From MPEC 2020-L06
C/2019 Y4-D (ATLAS),e,45.5011,121.1158,177.4583,68.44264,0.0017407,0.99629479,0.0000,05/30.9977/2020,2000,g 12.5,6.0
# From MPEC 2023-A50
C/2019 Y5 (PANSTARRS),e,82.7700,51.7579,303.5587,758.8988,0.0000471,0.99351739,0.0000,08/17.9687/2019,2000,g 11.0,4.0
# From MPEC 2023-A50
A/2020 A1,e,149.0377,119.2079,302.5179,25.66738,0.0075793,0.93506615,9.3351,04/17.0/2023,2000,g 18.0,2.0
# From MPEC 2022-YN2
C/2020 A2 (NEOWISE),e,120.6384,286.3061,68.0987,1440,0.0000180,0.99932323,0.0000,01/08.5306/2020,2000,g 13.5,4.0
# From MPEC 2023-A50
C/2020 A3 (ATLAS),h,06/29.1709/2019,146.6712,120.8041,268.3785,1.000918,5.760799,2000,8.0,4.0
# From MPEC 2022-P91
P/2020 A4 (PANSTARRS-Lemmon),e,24.9906,312.3805,144.7693,8.194020,0.0420202,0.65396180,52.1507,04/17.0/2023,2000,g 15.0,4.0
# From MPEC 2020-N08
A/2020 B1,e,18.5189,309.9561,154.7244,51.40381,0.0026743,0.96612781,3.2298,04/17.0/2023,2000,g 21.0,2.0
# From MPEC 2022-N37
C/2020 B3 (Rankin),e,20.7097,185.8475,324.9169,950.9334,0.0000336,0.99649089,0.0000,10/19.4350/2019,2000,g 13.0,4.0
# From MPEC 2022-H04
P/2020 B4 (Sheppard),e,11.6093,185.9791,342.0871,7.966873,0.0438301,0.19181288,22.5061,04/17.0/2023,2000,g 10.5,4.0
# From MPEC 2023-G31
C/2020 F2 (ATLAS),h,07/14.9684/2022,163.5881,250.2881,48.3308,1.005391,8.816716,2000,4.5,4.0
# From MPEC 2021-O56
C/2020 F3 (NEOWISE),e,129.1074,61.0734,37.3603,357.4045,0.0001459,0.99917264,0.0000,07/03.7172/2020,2000,g  7.5,5.2
# From MPEC 2023-C45
C/2020 F5 (MASTER),e,52.2089,350.5024,310.6799,178.7948,0.0004123,0.97581432,0.0000,03/17.6398/2021,2000,g  6.5,3.2
# From MPEC 2020-L06
C/2020 F6 (PANSTARRS),e,174.5830,207.9079,344.5560,402.4151,0.0001221,0.99128795,0.0000,04/11.7134/2020,2000,g 14.5,2.8
# From MPEC 2023-D72
C/2020 F7 (Lemmon),e,93.9508,321.8712,227.9503,587.2399,0.0000693,0.99092009,0.0000,11/13.7515/2021,2000,g  7.0,4.0
# From MPEC 2020-KB7
C/2020 F8 (SWAN),e,110.6499,259.8738,68.1298,254.8844,0.0002422,0.99831468,0.0000,05/27.3536/2020,2000,g 10.0,4.0
# From MPEC 2020-L06
